start=new Date('2023-03-11T00:00:00.000Z').valueOf();
sats=[{"NORAD_CAT_ID":"50804","PERIAPSIS":"537.880","TLE_LINE2":"2 50804  53.2162  35.1307 0002771  96.5722 263.5585 15.08823008 65229","ELEMENT_SET_NO":"999","TLE_LINE1":"1 50804U 22001B   23069.60806230  .00007264  00000-0  47424-3 0  9990","FILE":"3856975","OBJECT_ID":"2022-001B","DECAY_DATE":null,"MEAN_MOTION":"15.08823008","MEAN_ELEMENT_THEORY":"SGP4","CLASSIFICATION_TYPE":"U","RA_OF_ASC_NODE":"35.1307","SEMIMAJOR_AXIS":"6917.932","INCLINATION":"53.2162","APOAPSIS":"541.714","EPHEMERIS_TYPE":"0","LAUNCH_DATE":"2022-01-06","OBJECT_TYPE":"PAYLOAD","BSTAR":"0.00047424000000","MEAN_MOTION_DOT":"0.00007264","OBJECT_NAME":"STARLINK-3323","ARG_OF_PERICENTER":"96.5722","REV_AT_EPOCH":"6522","COUNTRY_CODE":"US","ECCENTRICITY":"0.00027710","TIME_SYSTEM":"UTC","SITE":"AFETR","MEAN_MOTION_DDOT":"0.0000000000000","CENTER_NAME":"EARTH","RCS_SIZE":"LARGE","EPOCH":"2023-03-10T14:35:36.582720","MEAN_ANOMALY":"263.5585","PERIOD":"95.439","REF_FRAME":"TEME","GP_ID":"227816562"},{"OBJECT_ID":"2022-001C","TLE_LINE2":"2 50805  53.2176  35.1466 0001558  66.1427 293.9729 15.08851593 65225","FILE":"3856975","TLE_LINE1":"1 50805U 22001C   23069.60437455  .00006402  00000-0  41984-3 0  9998","ELEMENT_SET_NO":"999","NORAD_CAT_ID":"50805","PERIAPSIS":"538.632","APOAPSIS":"540.788","EPHEMERIS_TYPE":"0","RA_OF_ASC_NODE":"35.1466","SEMIMAJOR_AXIS":"6917.845","INCLINATION":"53.2176","CLASSIFICATION_TYPE":"U","DECAY_DATE":null,"MEAN_MOTION":"15.08851593","MEAN_ELEMENT_THEORY":"SGP4","MEAN_MOTION_DOT":"0.00006402","BSTAR":"0.00041984000000","OBJECT_TYPE":"PAYLOAD","LAUNCH_DATE":"2022-01-06","OBJECT_NAME":"STARLINK-3333","TIME_SYSTEM":"UTC","ECCENTRICITY":"0.00015580","REV_AT_EPOCH":"6522","COUNTRY_CODE":"US","ARG_OF_PERICENTER":"66.1427","CENTER_NAME":"EARTH","MEAN_MOTION_DDOT":"0.0000000000000","SITE":"AFETR","RCS_SIZE":"LARGE","GP_ID":"227817313","PERIOD":"95.437","REF_FRAME":"TEME","MEAN_ANOMALY":"293.9729","EPOCH":"2023-03-10T14:30:17.961120"},{"OBJECT_NAME":"STARLINK-3335","MEAN_MOTION_DOT":"-0.00007791","BSTAR":"-0.00047234000000","OBJECT_TYPE":"PAYLOAD","LAUNCH_DATE":"2022-01-06","EPHEMERIS_TYPE":"0","APOAPSIS":"540.552","INCLINATION":"53.2194","RA_OF_ASC_NODE":"33.6826","SEMIMAJOR_AXIS":"6917.969","CLASSIFICATION_TYPE":"U","MEAN_ELEMENT_THEORY":"SGP4","DECAY_DATE":null,"MEAN_MOTION":"15.08810972","OBJECT_ID":"2022-001D","FILE":"3856975","TLE_LINE1":"1 50806U 22001D   23069.93189699 -.00007791  00000-0 -47234-3 0  9997","ELEMENT_SET_NO":"999","TLE_LINE2":"2 50806  53.2194  33.6826 0001038  78.2363 281.8745 15.08810972 65270","PERIAPSIS":"539.116","NORAD_CAT_ID":"50806","GP_ID":"227818063","REF_FRAME":"TEME","PERIOD":"95.439","MEAN_ANOMALY":"281.8745","EPOCH":"2023-03-10T22:21:55.899936","RCS_SIZE":"LARGE","CENTER_NAME":"EARTH","MEAN_MOTION_DDOT":"0.0000000000000","SITE":"AFETR","TIME_SYSTEM":"UTC","ECCENTRICITY":"0.00010380","REV_AT_EPOCH":"6527","COUNTRY_CODE":"US","ARG_OF_PERICENTER":"78.2363"},{"OBJECT_NAME":"STARLINK-3353","OBJECT_TYPE":"PAYLOAD","LAUNCH_DATE":"2022-01-06","MEAN_MOTION_DOT":"0.00030736","BSTAR":"0.00194080000000","CLASSIFICATION_TYPE":"U","MEAN_ELEMENT_THEORY":"SGP4","DECAY_DATE":null,"MEAN_MOTION":"15.08840951","EPHEMERIS_TYPE":"0","APOAPSIS":"541.062","INCLINATION":"53.2178","SEMIMAJOR_AXIS":"6917.877","RA_OF_ASC_NODE":"33.7409","FILE":"3856975","TLE_LINE1":"1 50807U 22001E   23069.91718110  .00030736  00000-0  19408-2 0  9996","ELEMENT_SET_NO":"999","TLE_LINE2":"2 50807  53.2178  33.7409 0001907 144.7410 215.3709 15.08840951 65270","PERIAPSIS":"538.423","NORAD_CAT_ID":"50807","OBJECT_ID":"2022-001E","MEAN_ANOMALY":"215.3709","EPOCH":"2023-03-10T22:00:44.447040","GP_ID":"227816811","REF_FRAME":"TEME","PERIOD":"95.437","RCS_SIZE":"LARGE","MEAN_MOTION_DDOT":"0.0000000000000","SITE":"AFETR","CENTER_NAME":"EARTH","COUNTRY_CODE":"US","REV_AT_EPOCH":"6527","ARG_OF_PERICENTER":"144.7410","TIME_SYSTEM":"UTC","ECCENTRICITY":"0.00019070"},{"OBJECT_TYPE":"PAYLOAD","LAUNCH_DATE":"2022-01-06","MEAN_MOTION_DOT":"0.00021039","BSTAR":"0.00133720000000","OBJECT_NAME":"STARLINK-3355","TLE_LINE2":"2 50808  53.2186  33.7163 0001468 128.1127 231.9998 15.08808538 65279","FILE":"3856975","TLE_LINE1":"1 50808U 22001F   23069.92454538  .00021039  00000-0  13372-2 0  9999","ELEMENT_SET_NO":"999","NORAD_CAT_ID":"50808","PERIAPSIS":"538.826","OBJECT_ID":"2022-001F","CLASSIFICATION_TYPE":"U","DECAY_DATE":null,"MEAN_MOTION":"15.08808538","MEAN_ELEMENT_THEORY":"SGP4","APOAPSIS":"540.857","EPHEMERIS_TYPE":"0","RA_OF_ASC_NODE":"33.7163","SEMIMAJOR_AXIS":"6917.977","INCLINATION":"53.2186","RCS_SIZE":"LARGE","MEAN_ANOMALY":"231.9998","EPOCH":"2023-03-10T22:11:20.720832","GP_ID":"227817061","PERIOD":"95.440","REF_FRAME":"TEME","REV_AT_EPOCH":"6527","COUNTRY_CODE":"US","ARG_OF_PERICENTER":"128.1127","TIME_SYSTEM":"UTC","ECCENTRICITY":"0.00014680","MEAN_MOTION_DDOT":"0.0000000000000","SITE":"AFETR","CENTER_NAME":"EARTH"},{"MEAN_MOTION_DDOT":"0.0000000000000","SITE":"AFETR","CENTER_NAME":"EARTH","COUNTRY_CODE":"US","REV_AT_EPOCH":"6527","ARG_OF_PERICENTER":"103.7193","TIME_SYSTEM":"UTC","ECCENTRICITY":"0.00015740","MEAN_ANOMALY":"256.3975","EPOCH":"2023-03-10T22:16:38.318592","GP_ID":"227817813","REF_FRAME":"TEME","PERIOD":"95.437","RCS_SIZE":"LARGE","CLASSIFICATION_TYPE":"U","MEAN_ELEMENT_THEORY":"SGP4","MEAN_MOTION":"15.08845978","DECAY_DATE":null,"EPHEMERIS_TYPE":"0","APOAPSIS":"540.816","INCLINATION":"53.2168","RA_OF_ASC_NODE":"33.6966","SEMIMAJOR_AXIS":"6917.862","FILE":"3856975","TLE_LINE1":"1 50809U 22001G   23069.92822128  .00013691  00000-0  87651-3 0  9991","ELEMENT_SET_NO":"999","TLE_LINE2":"2 50809  53.2168  33.6966 0001574 103.7193 256.3975 15.08845978 65275","PERIAPSIS":"538.638","NORAD_CAT_ID":"50809","OBJECT_ID":"2022-001G","OBJECT_NAME":"STARLINK-3232","OBJECT_TYPE":"PAYLOAD","LAUNCH_DATE":"2022-01-06","MEAN_MOTION_DOT":"0.00013691","BSTAR":"0.00087651000000"},{"CENTER_NAME":"EARTH","MEAN_MOTION_DDOT":"0.0000000000000","SITE":"AFETR","TIME_SYSTEM":"UTC","ECCENTRICITY":"0.00012240","REV_AT_EPOCH":"6527","COUNTRY_CODE":"US","ARG_OF_PERICENTER":"125.7558","GP_ID":"227817564","PERIOD":"95.439","REF_FRAME":"TEME","MEAN_ANOMALY":"234.3548","EPOCH":"2023-03-10T22:06:02.678112","RCS_SIZE":"LARGE","APOAPSIS":"540.649","EPHEMERIS_TYPE":"0","SEMIMAJOR_AXIS":"6917.938","RA_OF_ASC_NODE":"33.7254","INCLINATION":"53.2176","CLASSIFICATION_TYPE":"U","DECAY_DATE":null,"MEAN_MOTION":"15.08821271","MEAN_ELEMENT_THEORY":"SGP4","OBJECT_ID":"2022-001H","TLE_LINE2":"2 50810  53.2176  33.7254 0001224 125.7558 234.3548 15.08821271 65270","TLE_LINE1":"1 50810U 22001H   23069.92086433  .00009510  00000-0  61508-3 0  9992","ELEMENT_SET_NO":"999","FILE":"3856975","NORAD_CAT_ID":"50810","PERIAPSIS":"538.956","OBJECT_NAME":"STARLINK-3348","MEAN_MOTION_DOT":"0.00009510","BSTAR":"0.00061508000000","OBJECT_TYPE":"PAYLOAD","LAUNCH_DATE":"2022-01-06"},{"RCS_SIZE":"LARGE","EPOCH":"2023-03-10T21:55:26.352480","MEAN_ANOMALY":"245.2404","PERIOD":"95.437","REF_FRAME":"TEME","GP_ID":"227816313","ARG_OF_PERICENTER":"114.8743","COUNTRY_CODE":"US","REV_AT_EPOCH":"6527","ECCENTRICITY":"0.00014820","TIME_SYSTEM":"UTC","SITE":"AFETR","MEAN_MOTION_DDOT":"0.0000000000000","CENTER_NAME":"EARTH","LAUNCH_DATE":"2022-01-06","OBJECT_TYPE":"PAYLOAD","BSTAR":"0.00015031000000","MEAN_MOTION_DOT":"0.00002105","OBJECT_NAME":"STARLINK-3347","NORAD_CAT_ID":"50811","PERIAPSIS":"538.699","TLE_LINE2":"2 50811  53.2148  33.7547 0001482 114.8743 245.2404 15.08846930 65277","TLE_LINE1":"1 50811U 22001J   23069.91349945  .00002105  00000-0  15031-3 0  9995","ELEMENT_SET_NO":"999","FILE":"3856975","OBJECT_ID":"2022-001J","MEAN_MOTION":"15.08846930","DECAY_DATE":null,"MEAN_ELEMENT_THEORY":"SGP4","CLASSIFICATION_TYPE":"U","RA_OF_ASC_NODE":"33.7547","SEMIMAJOR_AXIS":"6917.859","INCLINATION":"53.2148","APOAPSIS":"540.749","EPHEMERIS_TYPE":"0"},{"CENTER_NAME":"EARTH","MEAN_MOTION_DDOT":"0.0000000000000","SITE":"AFETR","TIME_SYSTEM":"UTC","ECCENTRICITY":"0.00012650","REV_AT_EPOCH":"6526","COUNTRY_CODE":"US","ARG_OF_PERICENTER":"132.9310","GP_ID":"227816563","REF_FRAME":"TEME","PERIOD":"95.499","MEAN_ANOMALY":"227.1788","EPOCH":"2023-03-10T21:04:32.158272","RCS_SIZE":"LARGE","EPHEMERIS_TYPE":"0","APOAPSIS":"543.593","INCLINATION":"53.2185","RA_OF_ASC_NODE":"33.9242","SEMIMAJOR_AXIS":"6920.853","CLASSIFICATION_TYPE":"U","MEAN_ELEMENT_THEORY":"SGP4","MEAN_MOTION":"15.07868067","DECAY_DATE":null,"OBJECT_ID":"2022-001K","TLE_LINE1":"1 50812U 22001K   23069.87814998 -.00165798  00000-0 -10930-1 0  9997","ELEMENT_SET_NO":"999","FILE":"3856975","TLE_LINE2":"2 50812  53.2185  33.9242 0001265 132.9310 227.1788 15.07868067 65260","PERIAPSIS":"541.842","NORAD_CAT_ID":"50812","OBJECT_NAME":"STARLINK-3338","MEAN_MOTION_DOT":"-0.00165798","BSTAR":"-0.01093000000000","OBJECT_TYPE":"PAYLOAD","LAUNCH_DATE":"2022-01-06"},{"REF_FRAME":"TEME","PERIOD":"95.436","GP_ID":"227817314","EPOCH":"2023-03-10T15:23:16.901376","MEAN_ANOMALY":"246.5393","RCS_SIZE":"LARGE","CENTER_NAME":"EARTH","SITE":"AFETR","MEAN_MOTION_DDOT":"0.0000000000000","ECCENTRICITY":"0.00007850","TIME_SYSTEM":"UTC","ARG_OF_PERICENTER":"113.5681","COUNTRY_CODE":"US","REV_AT_EPOCH":"6523","OBJECT_NAME":"STARLINK-3349","BSTAR":"0.00137830000000","MEAN_MOTION_DOT":"0.00021730","LAUNCH_DATE":"2022-01-06","OBJECT_TYPE":"PAYLOAD","INCLINATION":"53.2158","SEMIMAJOR_AXIS":"6917.806","RA_OF_ASC_NODE":"34.9326","EPHEMERIS_TYPE":"0","APOAPSIS":"540.215","MEAN_ELEMENT_THEORY":"SGP4","MEAN_MOTION":"15.08864174","DECAY_DATE":null,"CLASSIFICATION_TYPE":"U","OBJECT_ID":"2022-001L","PERIAPSIS":"539.128","NORAD_CAT_ID":"50813","TLE_LINE1":"1 50813U 22001L   23069.64116784  .00021730  00000-0  13783-2 0  9996","FILE":"3856975","ELEMENT_SET_NO":"999","TLE_LINE2":"2 50813  53.2158  34.9326 0000785 113.5681 246.5393 15.08864174 65237"}];
